EYESAT-1 (AO-27)        
1 22825U 93061C   17175.88932896 -.00000023  00000-0  86572-5 0  9991
2 22825  98.8126 141.5655 0007611 315.0465  45.0100 14.29998936238509
CUTE-1 (CO-55)          
1 27844U 03031E   17176.44816868  .00000042  00000-0  38656-4 0  9997
2 27844  98.6890 185.3345 0009044 330.4208  29.6457 14.22043600725495
CUBESAT XI-IV (CO-57)   
1 27848U 03031J   17176.45018114  .00000032  00000-0  34330-4 0  9994
2 27848  98.6983 185.5990 0009172 340.3519  19.7303 14.21657569725345
CUBESAT XI 5            
1 28895U 05043F   17176.44687744  .00000107  00000-0  29244-4 0  9993
2 28895  97.8655 338.3580 0018215 115.7453 244.5632 14.63403775621697
CUTE-1.7+APD II (CO-65) 
1 32785U 08021C   17176.51458360  .00000223  00000-0  30013-4 0  9998
2 32785  97.5659 200.4076 0014258 136.0296 224.2058 14.87895043496061
COMPASS-1               
1 32787U 08021E   17176.52927991  .00000315  00000-0  35821-4 0  9996
2 32787  97.5593 209.3440 0014205 108.4969 251.7796 14.92609536496694
AAUSAT-II               
1 32788U 08021F   17176.53952258  .00000234  00000-0  27100-4 0  9993
2 32788  97.5581 212.2101 0013642 101.5264 258.7489 14.93882774496824
DELFI-C3 (DO-64)        
1 32789U 08021G   17176.60231775  .00000774  00000-0  58899-4 0  9994
2 32789  97.5585 234.6569 0014554  75.6737 284.6104 15.04897880498038
CANX-2                  
1 32790U 08021H   17176.49584643  .00000195  00000-0  27045-4 0  9994
2 32790  97.5637 198.7593 0014900 137.9052 222.3313 14.87621429495999
SEEDS II (CO-66)        
1 32791U 08021J   17176.50287617  .00000379  00000-0  44459-4 0  9990
2 32791  97.5628 204.7868 0014851 122.2059 238.0601 14.90230705496309
SWISSCUBE               
1 35932U 09051B   17176.38249987  .00000114  00000-0  36786-4 0  9999
2 35932  98.4968 315.0332 0006932 218.0712 141.9996 14.56018580411470
BEESAT                  
1 35933U 09051C   17176.36815936  .00000103  00000-0  34246-4 0  9998
2 35933  98.5005 316.3351 0004902 230.9586 129.1175 14.56137648411537
ITUPSAT 1               
1 35935U 09051E   17176.42953564  .00000070  00000-0  27136-4 0  9990
2 35935  98.5116 316.6513 0007300 226.2119 133.8474 14.55330825411401
TISAT 1                 
1 36799U 10035E   17176.40185681  .00000343  00000-0  41320-4 0  9992
2 36799  98.0628 299.2944 0011135 303.6134  56.4020 14.90401178377008
M-CUBED & EXP-1 PRIME   
1 37855U 11061F   17176.25014898  .00001668  00000-0  94681-4 0  9999
2 37855 101.7156  51.7797 0180940  57.7250 304.1348 15.03069704307531
HORYU 2                 
1 38340U 12025D   17176.56495921  .00000198  00000-0  37353-4 0  9994
2 38340  98.3761 180.7814 0010266 265.2026  94.8010 14.75344791264112
STRAND-1                
1 39090U 13009E   17176.52890064  .00000033  00000-0  27116-4 0  9997
2 39090  98.5534  21.8889 0007993 277.0990  82.9286 14.34971132226656
BRITE-AUSTRIA           
1 39091U 13009F   17176.54275588 -.00000005  00000-0  13562-4 0  9998
2 39091  98.5498  21.2869 0009376 285.5145  74.5005 14.35031050226698
UNIBRITE                
1 39092U 13009G   17176.54284640 -.00000007  00000-0  13169-4 0  9993
2 39092  98.5506  20.9769 0008197 278.1878  81.8377 14.34905572226674
AIST-2                  
1 39133U 13015D   17176.61180552  .00000078  00000-0  18219-4 0  9999
2 39133  64.8735 258.9325 0037589 280.8923  78.7968 15.04291613229170
SOMP                    
1 39134U 13015E   17176.45318011  .00000943  00000-0  55684-4 0  9993
2 39134  64.8642 199.7821 0036190 266.1832  93.5156 15.17817367230354
BEESAT-2                
1 39136U 13015G   17176.42697603  .00000871  00000-0  56213-4 0  9998
2 39136  64.8687 210.6692 0033223 281.5942  78.1454 15.15098909230138
NEE-01 PEGASUS          
1 39151U 13018B   17176.21675764  .00000146  00000-0  26471-4 0  9997
2 39151  97.9838 267.6852 0017734  28.8069 331.4118 14.79721751224728
CUBEBUG-1 (CAPITAN BETO)
1 39153U 13018D   17176.20423651  .00000161  00000-0  28179-4 0  9998
2 39153  97.9860 268.4577 0017595  27.2677 332.9455 14.80184499224770
ESTCUBE 1               
1 39161U 13021C   17176.42444569  .00000159  00000-0  33238-4 0  9995
2 39161  98.0281 262.3202 0010941 114.2690 245.9667 14.71901070221964
POPACS 1                
1 39268U 13055D   17176.47228387  .00005178  00000-0  14944-3 0  9991
2 39268  81.0030 359.5431 0651343 195.2772 162.7901 14.30891760193375
POPACS 2                
1 39269U 13055E   17176.23703505  .00001691  00000-0  50226-4 0  9996
2 39269  81.0158  14.7383 0700238 235.0864 118.2596 14.19891778191220
POPACS 3                
1 39270U 13055F   17176.54210791  .00000604  00000-0  19146-4 0  9991
2 39270  81.0177  22.5920 0724458 259.1294  92.7606 14.13169136171250
FIREFLY                 
1 39404U 13064AA  17176.55709272  .00040457  00000-0  24326-3 0  9993
2 39404  40.4973 250.3204 0006180 121.4678 238.6755 15.76870373198987
ZACUBE-1 (TSHEPISOSAT)  
1 39417U 13066B   17176.33690633  .00000206  00000-0  32783-4 0  9990
2 39417  97.6288 218.1850 0057949 242.6100 116.9210 14.80713288193982
WNISAT-1                
1 39423U 13066H   17176.60468229  .00000124  00000-0  33703-4 0  9993
2 39423  97.6827 164.2798 0177126  52.0878 309.6173 14.52846695190462
TRITON-1                
1 39427U 13066M   17176.50883523  .00000193  00000-0  39289-4 0  9995
2 39427  97.6372 191.3073 0113382 322.7791  36.5594 14.67462864192264
GOMX 1                  
1 39430U 13066Q   17176.47119157  .00000204  00000-0  45919-4 0  9990
2 39430  97.6648 174.8749 0152425  17.4787 343.1579 14.58872918191145
BRITE-PL                
1 39431U 13066R   17176.48681623  .00000063  00000-0  22915-4 0  9998
2 39431  97.7066 153.5076 0204153  90.0157 272.4430 14.46845320189659
HUMSAT-D                
1 39433U 13066T   17176.17127572  .00000454  00000-0  50548-4 0  9991
2 39433  97.6521 239.0574 0031062 187.6692 172.4056 14.91438497195207
EAGLE 2                 
1 39436U 13066W   17176.26493648  .00019968  00000-0  54553-3 0  9993
2 39436  97.7098 282.6098 0011218  60.5746 299.6616 15.37376899197894
CUBEBUG-2 (LO-74)       
1 39440U 13066AA  17176.51839115  .00000196  00000-0  34725-4 0  9992
2 39440  97.6281 207.4688 0079193 273.4449  85.7705 14.75454735193327
NEE-02 KRYSAOR          
1 39441U 13066AB  17176.53047212  .00000119  00000-0  24348-4 0  9999
2 39441  97.6262 206.1776 0080590 277.0360  82.1689 14.74620983193215
FUNCUBE-1 (AO-73)       
1 39444U 13066AE  17176.58272101  .00000271  00000-0  40293-4 0  9990
2 39444  97.6304 219.4834 0057185 238.4167 121.1457 14.81447125192261
UWE-3                   
1 39446U 13066AG  17176.33953286  .00000194  00000-0  32960-4 0  9991
2 39446  97.6273 212.4572 0068913 258.6510 100.6953 14.77987430191813
BRITE-TORONTO           
1 40020U 14033L   17176.56543822  .00000095  00000-0  25020-4 0  9991
2 40020  97.8349  46.9690 0086395 300.9137  58.3595 14.66393808161311
DUCHIFAT-1              
1 40021U 14033M   17176.55921733  .00000401  00000-0  47577-4 0  9994
2 40021  97.9185  89.7373 0011583 275.3823  84.6072 14.89895360163845
FLOCK 1C-10             
1 40023U 14033P   17176.53116658  .00000693  00000-0  80187-4 0  9993
2 40023  97.9190  88.7714 0011873 284.6264  75.3657 14.88718966163745
NANOSATC-BR1            
1 40024U 14033Q   17176.29632278  .00000361  00000-0  44195-4 0  9999
2 40024  97.9145  88.3490 0010892 277.6386  82.3593 14.89219894163755
QB50P1                  
1 40025U 14033R   17176.54907025  .00000263  00000-0  34411-4 0  9994
2 40025  97.9125  87.6313 0011103 279.7613  80.2349 14.88423451163225
FLOCK 1C-7              
1 40026U 14033S   17176.54386622  .00000822  00000-0  92342-4 0  9997
2 40026  97.9226  89.5156 0010275 281.0676  78.9352 14.89455681163799
FLOCK 1C-1              
1 40027U 14033T   17176.29717184  .00000456  00000-0  54752-4 0  9997
2 40027  97.9239  88.7668 0011778 281.7897  78.1976 14.88779302163729
POPSAT-HIP-1            
1 40028U 14033U   17176.44687799  .00000081  00000-0  14876-4 0  9990
2 40028  97.9171  87.8055 0012475 278.9890  80.9922 14.88291241163702
FLOCK 1C-2              
1 40029U 14033V   17176.46032573  .00000699  00000-0  80632-4 0  9995
2 40029  97.9223  88.7883 0012958 276.7010  83.2733 14.88798804163732
FLOCK 1C-4              
1 40031U 14033X   17176.27585656  .00000799  00000-0  91634-4 0  9997
2 40031  97.9229  88.5878 0013440 275.5762  84.3912 14.88648339163694
QB50P2                  
1 40032U 14033Y   17176.39725174  .00000237  00000-0  31938-4 0  9990
2 40032  97.9098  86.5911 0010472 274.5292  85.4728 14.87981132163141
FLOCK 1C-11             
1 40033U 14033Z   17173.10317708 -.00000057  00000-0  44287-7 0  9992
2 40033  97.9236  86.8166 0011145 279.1399  80.8535 14.90163462163325
ANTELSAT                
1 40034U 14033AA  17176.49925752  .00000202  00000-0  38021-4 0  9999
2 40034  97.8584  60.1739 0057552 266.2822  93.1804 14.73701312161611
FLOCK 1C-9              
1 40035U 14033AB  17176.58321182  .00000352  00000-0  43638-4 0  9993
2 40035  97.9249  89.2750 0010757 269.8906  90.1094 14.88849391163766
FLOCK 1C-6              
1 40036U 14033AC  17176.33478816  .00000803  00000-0  91473-4 0  9995
2 40036  97.9259  89.2344 0010923 271.1350  88.8608 14.88958725163735
PERSEUS-M2              
1 40037U 14033AD  17176.27311627  .00000095  00000-0  17095-4 0  9996
2 40037  97.9120  85.0013 0013017 280.6052  79.3697 14.86227988163013
FLOCK 1C-5              
1 40038U 14033AE  17176.34208903  .00000738  00000-0  84555-4 0  9996
2 40038  97.9231  89.0536 0013182 269.2791  90.6893 14.88949143163725
PERSEUS-M1              
1 40039U 14033AF  17176.34226693  .00000092  00000-0  16869-4 0  9999
2 40039  97.9126  84.6295 0012847 275.9304  84.0446 14.85852275162976
FLOCK 1C-8              
1 40040U 14033AG  17176.45649374  .00000626  00000-0  69273-4 0  9998
2 40040  97.9272  91.2831 0011601 256.1432 103.8505 14.90886542163865
